[{"OBJECT_NAME":"STARLINK-5423","OBJECT_ID":"2023-021AU","EPOCH":"2026-03-09T16:08:51.021600","MEAN_MOTION":14.98327109,"ECCENTRICITY":0.0003342,"INCLINATION":70.0011,"RA_OF_ASC_NODE":164.4345,"ARG_OF_PERICENTER":267.8807,"MEAN_ANOMALY":92.1969,"EPHEMERIS_TYPE":0,"CLASSIFICATION_TYPE":"U","NORAD_CAT_ID":55670,"ELEMENT_SET_NO":999,"REV_AT_EPOCH":16928,"BSTAR":-7.4615813e-5,"MEAN_MOTION_DOT":-9.83e-6,"MEAN_MOTION_DDOT":0},{"OBJECT_NAME":"ICEYE-X43","OBJECT_ID":"2024-149BZ","EPOCH":"2026-03-09T22:37:06.906720","MEAN_MOTION":14.99337202,"ECCENTRICITY":0.00024583,"INCLINATION":97.6823,"RA_OF_ASC_NODE":147.2527,"ARG_OF_PERICENTER":59.9226,"MEAN_ANOMALY":300.2241,"EPHEMERIS_TYPE":0,"CLASSIFICATION_TYPE":"U","NORAD_CAT_ID":60539,"ELEMENT_SET_NO":999,"REV_AT_EPOCH":8524,"BSTAR":0.00036668005,"MEAN_MOTION_DOT":4.424e-5,"MEAN_MOTION_DDOT":0}]
